{"type":"FeatureCollection","source":"War_Game curated terrain corridors","description":"Named strategic terrain bands based on the geographic extent of major North China landforms; drawn as gameplay corridors rather than administrative boundaries.","features":[
{"type":"Feature","properties":{"name":"Taihang Mountains","nameZh":"太行山脉","kind":"mountain"},"geometry":{"type":"Polygon","coordinates":[[[111.2,35.3],[111.45,36.3],[112.0,37.3],[112.25,38.4],[112.65,39.3],[113.45,40.1],[114.25,40.45],[114.45,39.9],[113.8,39.3],[113.45,38.35],[113.25,37.4],[112.75,36.35],[112.2,35.45],[111.2,35.3]]]}},
{"type":"Feature","properties":{"name":"Yanshan Mountains","nameZh":"燕山山脉","kind":"mountain"},"geometry":{"type":"Polygon","coordinates":[[[115.0,40.05],[116.0,39.65],[117.15,39.75],[118.15,40.2],[119.2,40.45],[120.0,40.95],[119.75,41.45],[118.7,41.2],[117.7,40.9],[116.55,40.65],[115.45,40.75],[115.0,40.05]]]}},
{"type":"Feature","properties":{"name":"Liaoxi Hills","nameZh":"辽西丘陵","kind":"hills"},"geometry":{"type":"Polygon","coordinates":[[[118.6,40.25],[119.55,40.4],[120.55,40.8],[121.35,41.4],[122.5,41.65],[122.85,42.3],[121.8,42.55],[120.7,42.15],[119.85,41.65],[118.95,41.15],[118.6,40.25]]]}},
{"type":"Feature","properties":{"name":"Taishan Mountains","nameZh":"泰山山脉","kind":"mountain"},"geometry":{"type":"Polygon","coordinates":[[[116.3,35.6],[116.8,35.25],[117.55,35.35],[118.15,35.8],[118.25,36.35],[117.75,36.85],[117.05,36.75],[116.55,36.35],[116.3,35.6]]]}},
{"type":"Feature","properties":{"name":"Kubuqi Desert","nameZh":"库布齐沙漠","kind":"desert"},"geometry":{"type":"Polygon","coordinates":[[[106.8,39.0],[108.0,38.75],[109.3,39.05],[110.8,39.45],[111.45,40.05],[110.7,40.45],[109.1,40.3],[107.7,39.95],[106.8,39.0]]]}},
{"type":"Feature","properties":{"name":"Ulan Buh–Tengger Desert","nameZh":"乌兰布和—腾格里沙漠","kind":"desert"},"geometry":{"type":"Polygon","coordinates":[[[103.0,37.0],[104.4,36.75],[105.8,37.35],[106.65,38.2],[106.6,39.4],[105.7,40.0],[104.3,39.55],[103.35,38.65],[103.0,37.0]]]}}
]}
